{
    "links": {
        "self": "http://www.neowsapp.com/rest/v1/neo/3819670?api_key=iIulBulltgU6a56xZRHN4H3l9WmuAYTsLGpBGhQ2"
    },
    "id": "3819670",
    "neo_reference_id": "3819670",
    "name": "(2018 GT11)",
    "designation": "2018 GT11",
    "nasa_jpl_url": "http://ssd.jpl.nasa.gov/sbdb.cgi?sstr=3819670",
    "absolute_magnitude_h": 27.51,
    "estimated_diameter": {
        "kilometers": {
            "estimated_diameter_min": 0.008366715,
            "estimated_diameter_max": 0.0187085435
        },
        "meters": {
            "estimated_diameter_min": 8.3667150189,
            "estimated_diameter_max": 18.7085435306
        },
        "miles": {
            "estimated_diameter_min": 0.0051988341,
            "estimated_diameter_max": 0.0116249464
        },
        "feet": {
            "estimated_diameter_min": 27.4498533025,
            "estimated_diameter_max": 61.3797379569
        }
    },
    "is_potentially_hazardous_asteroid": false,
    "close_approach_data": [
        {
            "close_approach_date": "1951-09-16",
            "close_approach_date_full": "1951-Sep-16 14:07",
            "epoch_date_close_approach": -577273980000,
            "relative_velocity": {
                "kilometers_per_second": "2.4719144529",
                "kilometers_per_hour": "8898.892030286",
                "miles_per_hour": "5529.4254395963"
            },
            "miss_distance": {
                "astronomical": "1.7447325118",
                "lunar": "678.7009470902",
                "kilometers": "261008267.485029866",
                "miles": "162183016.8887735108"
            },
            "orbiting_body": "Juptr"
        },
        {
            "close_approach_date": "2015-01-23",
            "close_approach_date_full": "2015-Jan-23 04:32",
            "epoch_date_close_approach": 1421987520000,
            "relative_velocity": {
                "kilometers_per_second": "21.1929881452",
                "kilometers_per_hour": "76294.7573226408",
                "miles_per_hour": "47406.5951819487"
            },
            "miss_distance": {
                "astronomical": "0.4463196675",
                "lunar": "173.6183506575",
                "kilometers": "66768471.597108225",
                "miles": "41488004.426114505"
            },
            "orbiting_body": "Earth"
        },
        {
            "close_approach_date": "2018-04-09",
            "close_approach_date_full": "2018-Apr-09 16:05",
            "epoch_date_close_approach": 1523289900000,
            "relative_velocity": {
                "kilometers_per_second": "7.7557486958",
                "kilometers_per_hour": "27920.6953048933",
                "miles_per_hour": "17348.8342576433"
            },
            "miss_distance": {
                "astronomical": "0.0173227244",
                "lunar": "6.7385397916",
                "kilometers": "2591442.672837028",
                "miles": "1610247.8087178664"
            },
            "orbiting_body": "Earth"
        }
    ],
    "orbital_data": {
        "orbit_id": "1",
        "orbit_determination_date": "2018-04-30 06:50:40",
        "first_observation_date": "2018-04-12",
        "last_observation_date": "2018-04-13",
        "data_arc_in_days": 1,
        "observations_used": 15,
        "orbit_uncertainty": "7",
        "minimum_orbit_intersection": ".0165916",
        "jupiter_tisserand_invariant": "3.529",
        "epoch_osculation": "2459000.5",
        "eccentricity": ".5321351569118881",
        "semi_major_axis": "2.125426647866161",
        "inclination": "2.930141150720398",
        "ascending_node_longitude": "33.23126042675921",
        "orbital_period": "1131.794577409082",
        "perihelion_distance": ".994412405099193",
        "perihelion_argument": "146.9135927100278",
        "aphelion_distance": "3.256440890633129",
        "perihelion_time": "2459333.956683468840",
        "mean_anomaly": "253.9344573256485",
        "mean_motion": ".3180789227883708",
        "equinox": "J2000",
        "orbit_class": {
            "orbit_class_type": "APO",
            "orbit_class_description": "Near-Earth asteroid orbits which cross the Earth’s orbit similar to that of 1862 Apollo",
            "orbit_class_range": "a (semi-major axis) > 1.0 AU; q (perihelion) < 1.017 AU"
        }
    },
    "is_sentry_object": false
}